{
  "type": "FeatureCollection",
  "name": "intersection_lane_graph",
  "crs": {
    "type": "name",
    "properties": {
      "name": "urn:ogc:def:crs:EPSG::3857"
    }
  },
  "features": [
    {
      "type": "Feature",
      "properties": {
        "id": 0,
        "frame": "map",
        "metadata": {
          "lane": 1,
          "arm": "north",
          "direction": "incoming",
          "t": 0.0,
          "role": "terminal"
        }
      },
      "geometry": {
        "type": "Point",
        "coordinates": [
          -0.25,
          6.5
        ]
      }
    },
    {
      "type": "Feature",
      "properties": {
        "id": 1,
        "frame": "map",
        "metadata": {
          "lane": 1,
          "arm": "north",
          "direction": "incoming",
          "t": 0.25,
          "role": "interior"
        }
      },
      "geometry": {
        "type": "Point",
        "coordinates": [
          -0.25,
          5.0
        ]
      }
    },
    {
      "type": "Feature",
      "properties": {
        "id": 2,
        "frame": "map",
        "metadata": {
          "lane": 1,
          "arm": "north",
          "direction": "incoming",
          "t": 0.5,
          "role": "interior"
        }
      },
      "geometry": {
        "type": "Point",
        "coordinates": [
          -0.25,
          3.5
        ]
      }
    },
    {
      "type": "Feature",
      "properties": {
        "id": 3,
        "frame": "map",
        "metadata": {
          "lane": 1,
          "arm": "north",
          "direction": "incoming",
          "t": 0.75,
          "role": "interior"
        }
      },
      "geometry": {
        "type": "Point",
        "coordinates": [
          -0.25,
          2.0
        ]
      }
    },
    {
      "type": "Feature",
      "properties": {
        "id": 4,
        "frame": "map",
        "metadata": {
          "lane": 1,
          "arm": "north",
          "direction": "incoming",
          "t": 1.0,
          "role": "terminal"
        }
      },
      "geometry": {
        "type": "Point",
        "coordinates": [
          -0.25,
          0.5
        ]
      }
    },
    {
      "type": "Feature",
      "properties": {
        "id": 9,
        "frame": "map",
        "metadata": {
          "lane": 2,
          "arm": "north",
          "direction": "outgoing",
          "t": 0.0,
          "role": "terminal"
        }
      },
      "geometry": {
        "type": "Point",
        "coordinates": [
          0.25,
          0.5
        ]
      }
    },
    {
      "type": "Feature",
      "properties": {
        "id": 10,
        "frame": "map",
        "metadata": {
          "lane": 2,
          "arm": "north",
          "direction": "outgoing",
          "t": 0.25,
          "role": "interior"
        }
      },
      "geometry": {
        "type": "Point",
        "coordinates": [
          0.25,
          2.0
        ]
      }
    },
    {
      "type": "Feature",
      "properties": {
        "id": 11,
        "frame": "map",
        "metadata": {
          "lane": 2,
          "arm": "north",
          "direction": "outgoing",
          "t": 0.5,
          "role": "interior"
        }
      },
      "geometry": {
        "type": "Point",
        "coordinates": [
          0.25,
          3.5
        ]
      }
    },
    {
      "type": "Feature",
      "properties": {
        "id": 12,
        "frame": "map",
        "metadata": {
          "lane": 2,
          "arm": "north",
          "direction": "outgoing",
          "t": 0.75,
          "role": "interior"
        }
      },
      "geometry": {
        "type": "Point",
        "coordinates": [
          0.25,
          5.0
        ]
      }
    },
    {
      "type": "Feature",
      "properties": {
        "id": 13,
        "frame": "map",
        "metadata": {
          "lane": 2,
          "arm": "north",
          "direction": "outgoing",
          "t": 1.0,
          "role": "terminal"
        }
      },
      "geometry": {
        "type": "Point",
        "coordinates": [
          0.25,
          6.5
        ]
      }
    },
    {
      "type": "Feature",
      "properties": {
        "id": 18,
        "frame": "map",
        "metadata": {
          "lane": 3,
          "arm": "south",
          "direction": "incoming",
          "t": 0.0,
          "role": "terminal"
        }
      },
      "geometry": {
        "type": "Point",
        "coordinates": [
          0.25,
          -6.5
        ]
      }
    },
    {
      "type": "Feature",
      "properties": {
        "id": 19,
        "frame": "map",
        "metadata": {
          "lane": 3,
          "arm": "south",
          "direction": "incoming",
          "t": 0.25,
          "role": "interior"
        }
      },
      "geometry": {
        "type": "Point",
        "coordinates": [
          0.25,
          -5.0
        ]
      }
    },
    {
      "type": "Feature",
      "properties": {
        "id": 20,
        "frame": "map",
        "metadata": {
          "lane": 3,
          "arm": "south",
          "direction": "incoming",
          "t": 0.5,
          "role": "interior"
        }
      },
      "geometry": {
        "type": "Point",
        "coordinates": [
          0.25,
          -3.5
        ]
      }
    },
    {
      "type": "Feature",
      "properties": {
        "id": 21,
        "frame": "map",
        "metadata": {
          "lane": 3,
          "arm": "south",
          "direction": "incoming",
          "t": 0.75,
          "role": "interior"
        }
      },
      "geometry": {
        "type": "Point",
        "coordinates": [
          0.25,
          -2.0
        ]
      }
    },
    {
      "type": "Feature",
      "properties": {
        "id": 22,
        "frame": "map",
        "metadata": {
          "lane": 3,
          "arm": "south",
          "direction": "incoming",
          "t": 1.0,
          "role": "terminal"
        }
      },
      "geometry": {
        "type": "Point",
        "coordinates": [
          0.25,
          -0.5
        ]
      }
    },
    {
      "type": "Feature",
      "properties": {
        "id": 27,
        "frame": "map",
        "metadata": {
          "lane": 4,
          "arm": "south",
          "direction": "outgoing",
          "t": 0.0,
          "role": "terminal"
        }
      },
      "geometry": {
        "type": "Point",
        "coordinates": [
          -0.25,
          -0.5
        ]
      }
    },
    {
      "type": "Feature",
      "properties": {
        "id": 28,
        "frame": "map",
        "metadata": {
          "lane": 4,
          "arm": "south",
          "direction": "outgoing",
          "t": 0.25,
          "role": "interior"
        }
      },
      "geometry": {
        "type": "Point",
        "coordinates": [
          -0.25,
          -2.0
        ]
      }
    },
    {
      "type": "Feature",
      "properties": {
        "id": 29,
        "frame": "map",
        "metadata": {
          "lane": 4,
          "arm": "south",
          "direction": "outgoing",
          "t": 0.5,
          "role": "interior"
        }
      },
      "geometry": {
        "type": "Point",
        "coordinates": [
          -0.25,
          -3.5
        ]
      }
    },
    {
      "type": "Feature",
      "properties": {
        "id": 30,
        "frame": "map",
        "metadata": {
          "lane": 4,
          "arm": "south",
          "direction": "outgoing",
          "t": 0.75,
          "role": "interior"
        }
      },
      "geometry": {
        "type": "Point",
        "coordinates": [
          -0.25,
          -5.0
        ]
      }
    },
    {
      "type": "Feature",
      "properties": {
        "id": 31,
        "frame": "map",
        "metadata": {
          "lane": 4,
          "arm": "south",
          "direction": "outgoing",
          "t": 1.0,
          "role": "terminal"
        }
      },
      "geometry": {
        "type": "Point",
        "coordinates": [
          -0.25,
          -6.5
        ]
      }
    },
    {
      "type": "Feature",
      "properties": {
        "id": 36,
        "frame": "map",
        "metadata": {
          "lane": 5,
          "arm": "east",
          "direction": "incoming",
          "t": 0.0,
          "role": "terminal"
        }
      },
      "geometry": {
        "type": "Point",
        "coordinates": [
          6.5,
          0.25
        ]
      }
    },
    {
      "type": "Feature",
      "properties": {
        "id": 37,
        "frame": "map",
        "metadata": {
          "lane": 5,
          "arm": "east",
          "direction": "incoming",
          "t": 0.25,
          "role": "interior"
        }
      },
      "geometry": {
        "type": "Point",
        "coordinates": [
          5.0,
          0.25
        ]
      }
    },
    {
      "type": "Feature",
      "properties": {
        "id": 38,
        "frame": "map",
        "metadata": {
          "lane": 5,
          "arm": "east",
          "direction": "incoming",
          "t": 0.5,
          "role": "interior"
        }
      },
      "geometry": {
        "type": "Point",
        "coordinates": [
          3.5,
          0.25
        ]
      }
    },
    {
      "type": "Feature",
      "properties": {
        "id": 39,
        "frame": "map",
        "metadata": {
          "lane": 5,
          "arm": "east",
          "direction": "incoming",
          "t": 0.75,
          "role": "interior"
        }
      },
      "geometry": {
        "type": "Point",
        "coordinates": [
          2.0,
          0.25
        ]
      }
    },
    {
      "type": "Feature",
      "properties": {
        "id": 40,
        "frame": "map",
        "metadata": {
          "lane": 5,
          "arm": "east",
          "direction": "incoming",
          "t": 1.0,
          "role": "terminal"
        }
      },
      "geometry": {
        "type": "Point",
        "coordinates": [
          0.5,
          0.25
        ]
      }
    },
    {
      "type": "Feature",
      "properties": {
        "id": 45,
        "frame": "map",
        "metadata": {
          "lane": 6,
          "arm": "east",
          "direction": "outgoing",
          "t": 0.0,
          "role": "terminal"
        }
      },
      "geometry": {
        "type": "Point",
        "coordinates": [
          0.5,
          -0.25
        ]
      }
    },
    {
      "type": "Feature",
      "properties": {
        "id": 46,
        "frame": "map",
        "metadata": {
          "lane": 6,
          "arm": "east",
          "direction": "outgoing",
          "t": 0.25,
          "role": "interior"
        }
      },
      "geometry": {
        "type": "Point",
        "coordinates": [
          2.0,
          -0.25
        ]
      }
    },
    {
      "type": "Feature",
      "properties": {
        "id": 47,
        "frame": "map",
        "metadata": {
          "lane": 6,
          "arm": "east",
          "direction": "outgoing",
          "t": 0.5,
          "role": "interior"
        }
      },
      "geometry": {
        "type": "Point",
        "coordinates": [
          3.5,
          -0.25
        ]
      }
    },
    {
      "type": "Feature",
      "properties": {
        "id": 48,
        "frame": "map",
        "metadata": {
          "lane": 6,
          "arm": "east",
          "direction": "outgoing",
          "t": 0.75,
          "role": "interior"
        }
      },
      "geometry": {
        "type": "Point",
        "coordinates": [
          5.0,
          -0.25
        ]
      }
    },
    {
      "type": "Feature",
      "properties": {
        "id": 49,
        "frame": "map",
        "metadata": {
          "lane": 6,
          "arm": "east",
          "direction": "outgoing",
          "t": 1.0,
          "role": "terminal"
        }
      },
      "geometry": {
        "type": "Point",
        "coordinates": [
          6.5,
          -0.25
        ]
      }
    },
    {
      "type": "Feature",
      "properties": {
        "id": 54,
        "frame": "map",
        "metadata": {
          "lane": 7,
          "arm": "west",
          "direction": "incoming",
          "t": 0.0,
          "role": "terminal"
        }
      },
      "geometry": {
        "type": "Point",
        "coordinates": [
          -6.5,
          -0.25
        ]
      }
    },
    {
      "type": "Feature",
      "properties": {
        "id": 55,
        "frame": "map",
        "metadata": {
          "lane": 7,
          "arm": "west",
          "direction": "incoming",
          "t": 0.25,
          "role": "interior"
        }
      },
      "geometry": {
        "type": "Point",
        "coordinates": [
          -5.0,
          -0.25
        ]
      }
    },
    {
      "type": "Feature",
      "properties": {
        "id": 56,
        "frame": "map",
        "metadata": {
          "lane": 7,
          "arm": "west",
          "direction": "incoming",
          "t": 0.5,
          "role": "interior"
        }
      },
      "geometry": {
        "type": "Point",
        "coordinates": [
          -3.5,
          -0.25
        ]
      }
    },
    {
      "type": "Feature",
      "properties": {
        "id": 57,
        "frame": "map",
        "metadata": {
          "lane": 7,
          "arm": "west",
          "direction": "incoming",
          "t": 0.75,
          "role": "interior"
        }
      },
      "geometry": {
        "type": "Point",
        "coordinates": [
          -2.0,
          -0.25
        ]
      }
    },
    {
      "type": "Feature",
      "properties": {
        "id": 58,
        "frame": "map",
        "metadata": {
          "lane": 7,
          "arm": "west",
          "direction": "incoming",
          "t": 1.0,
          "role": "terminal"
        }
      },
      "geometry": {
        "type": "Point",
        "coordinates": [
          -0.5,
          -0.25
        ]
      }
    },
    {
      "type": "Feature",
      "properties": {
        "id": 63,
        "frame": "map",
        "metadata": {
          "lane": 8,
          "arm": "west",
          "direction": "outgoing",
          "t": 0.0,
          "role": "terminal"
        }
      },
      "geometry": {
        "type": "Point",
        "coordinates": [
          -0.5,
          0.25
        ]
      }
    },
    {
      "type": "Feature",
      "properties": {
        "id": 64,
        "frame": "map",
        "metadata": {
          "lane": 8,
          "arm": "west",
          "direction": "outgoing",
          "t": 0.25,
          "role": "interior"
        }
      },
      "geometry": {
        "type": "Point",
        "coordinates": [
          -2.0,
          0.25
        ]
      }
    },
    {
      "type": "Feature",
      "properties": {
        "id": 65,
        "frame": "map",
        "metadata": {
          "lane": 8,
          "arm": "west",
          "direction": "outgoing",
          "t": 0.5,
          "role": "interior"
        }
      },
      "geometry": {
        "type": "Point",
        "coordinates": [
          -3.5,
          0.25
        ]
      }
    },
    {
      "type": "Feature",
      "properties": {
        "id": 66,
        "frame": "map",
        "metadata": {
          "lane": 8,
          "arm": "west",
          "direction": "outgoing",
          "t": 0.75,
          "role": "interior"
        }
      },
      "geometry": {
        "type": "Point",
        "coordinates": [
          -5.0,
          0.25
        ]
      }
    },
    {
      "type": "Feature",
      "properties": {
        "id": 67,
        "frame": "map",
        "metadata": {
          "lane": 8,
          "arm": "west",
          "direction": "outgoing",
          "t": 1.0,
          "role": "terminal"
        }
      },
      "geometry": {
        "type": "Point",
        "coordinates": [
          -6.5,
          0.25
        ]
      }
    },
    {
      "type": "Feature",
      "properties": {
        "id": 5,
        "startid": 0,
        "endid": 1,
        "metadata": {
          "class": "approach",
          "arm": "north",
          "lane": 1,
          "speed_limit": 100.0
        }
      },
      "geometry": {
        "type": "LineString",
        "coordinates": [
          [
            -0.25,
            6.5
          ],
          [
            -0.25,
            5.0
          ]
        ]
      }
    },
    {
      "type": "Feature",
      "properties": {
        "id": 6,
        "startid": 1,
        "endid": 2,
        "metadata": {
          "class": "approach",
          "arm": "north",
          "lane": 1,
          "speed_limit": 100.0
        }
      },
      "geometry": {
        "type": "LineString",
        "coordinates": [
          [
            -0.25,
            5.0
          ],
          [
            -0.25,
            3.5
          ]
        ]
      }
    },
    {
      "type": "Feature",
      "properties": {
        "id": 7,
        "startid": 2,
        "endid": 3,
        "metadata": {
          "class": "approach",
          "arm": "north",
          "lane": 1,
          "speed_limit": 100.0
        }
      },
      "geometry": {
        "type": "LineString",
        "coordinates": [
          [
            -0.25,
            3.5
          ],
          [
            -0.25,
            2.0
          ]
        ]
      }
    },
    {
      "type": "Feature",
      "properties": {
        "id": 8,
        "startid": 3,
        "endid": 4,
        "metadata": {
          "class": "approach",
          "arm": "north",
          "lane": 1,
          "speed_limit": 100.0
        }
      },
      "geometry": {
        "type": "LineString",
        "coordinates": [
          [
            -0.25,
            2.0
          ],
          [
            -0.25,
            0.5
          ]
        ]
      }
    },
    {
      "type": "Feature",
      "properties": {
        "id": 14,
        "startid": 9,
        "endid": 10,
        "metadata": {
          "class": "departure",
          "arm": "north",
          "lane": 2,
          "speed_limit": 100.0
        }
      },
      "geometry": {
        "type": "LineString",
        "coordinates": [
          [
            0.25,
            0.5
          ],
          [
            0.25,
            2.0
          ]
        ]
      }
    },
    {
      "type": "Feature",
      "properties": {
        "id": 15,
        "startid": 10,
        "endid": 11,
        "metadata": {
          "class": "departure",
          "arm": "north",
          "lane": 2,
          "speed_limit": 100.0
        }
      },
      "geometry": {
        "type": "LineString",
        "coordinates": [
          [
            0.25,
            2.0
          ],
          [
            0.25,
            3.5
          ]
        ]
      }
    },
    {
      "type": "Feature",
      "properties": {
        "id": 16,
        "startid": 11,
        "endid": 12,
        "metadata": {
          "class": "departure",
          "arm": "north",
          "lane": 2,
          "speed_limit": 100.0
        }
      },
      "geometry": {
        "type": "LineString",
        "coordinates": [
          [
            0.25,
            3.5
          ],
          [
            0.25,
            5.0
          ]
        ]
      }
    },
    {
      "type": "Feature",
      "properties": {
        "id": 17,
        "startid": 12,
        "endid": 13,
        "metadata": {
          "class": "departure",
          "arm": "north",
          "lane": 2,
          "speed_limit": 100.0
        }
      },
      "geometry": {
        "type": "LineString",
        "coordinates": [
          [
            0.25,
            5.0
          ],
          [
            0.25,
            6.5
          ]
        ]
      }
    },
    {
      "type": "Feature",
      "properties": {
        "id": 23,
        "startid": 18,
        "endid": 19,
        "metadata": {
          "class": "approach",
          "arm": "south",
          "lane": 3,
          "speed_limit": 100.0
        }
      },
      "geometry": {
        "type": "LineString",
        "coordinates": [
          [
            0.25,
            -6.5
          ],
          [
            0.25,
            -5.0
          ]
        ]
      }
    },
    {
      "type": "Feature",
      "properties": {
        "id": 24,
        "startid": 19,
        "endid": 20,
        "metadata": {
          "class": "approach",
          "arm": "south",
          "lane": 3,
          "speed_limit": 100.0
        }
      },
      "geometry": {
        "type": "LineString",
        "coordinates": [
          [
            0.25,
            -5.0
          ],
          [
            0.25,
            -3.5
          ]
        ]
      }
    },
    {
      "type": "Feature",
      "properties": {
        "id": 25,
        "startid": 20,
        "endid": 21,
        "metadata": {
          "class": "approach",
          "arm": "south",
          "lane": 3,
          "speed_limit": 100.0
        }
      },
      "geometry": {
        "type": "LineString",
        "coordinates": [
          [
            0.25,
            -3.5
          ],
          [
            0.25,
            -2.0
          ]
        ]
      }
    },
    {
      "type": "Feature",
      "properties": {
        "id": 26,
        "startid": 21,
        "endid": 22,
        "metadata": {
          "class": "approach",
          "arm": "south",
          "lane": 3,
          "speed_limit": 100.0
        }
      },
      "geometry": {
        "type": "LineString",
        "coordinates": [
          [
            0.25,
            -2.0
          ],
          [
            0.25,
            -0.5
          ]
        ]
      }
    },
    {
      "type": "Feature",
      "properties": {
        "id": 32,
        "startid": 27,
        "endid": 28,
        "metadata": {
          "class": "departure",
          "arm": "south",
          "lane": 4,
          "speed_limit": 100.0
        }
      },
      "geometry": {
        "type": "LineString",
        "coordinates": [
          [
            -0.25,
            -0.5
          ],
          [
            -0.25,
            -2.0
          ]
        ]
      }
    },
    {
      "type": "Feature",
      "properties": {
        "id": 33,
        "startid": 28,
        "endid": 29,
        "metadata": {
          "class": "departure",
          "arm": "south",
          "lane": 4,
          "speed_limit": 100.0
        }
      },
      "geometry": {
        "type": "LineString",
        "coordinates": [
          [
            -0.25,
            -2.0
          ],
          [
            -0.25,
            -3.5
          ]
        ]
      }
    },
    {
      "type": "Feature",
      "properties": {
        "id": 34,
        "startid": 29,
        "endid": 30,
        "metadata": {
          "class": "departure",
          "arm": "south",
          "lane": 4,
          "speed_limit": 100.0
        }
      },
      "geometry": {
        "type": "LineString",
        "coordinates": [
          [
            -0.25,
            -3.5
          ],
          [
            -0.25,
            -5.0
          ]
        ]
      }
    },
    {
      "type": "Feature",
      "properties": {
        "id": 35,
        "startid": 30,
        "endid": 31,
        "metadata": {
          "class": "departure",
          "arm": "south",
          "lane": 4,
          "speed_limit": 100.0
        }
      },
      "geometry": {
        "type": "LineString",
        "coordinates": [
          [
            -0.25,
            -5.0
          ],
          [
            -0.25,
            -6.5
          ]
        ]
      }
    },
    {
      "type": "Feature",
      "properties": {
        "id": 41,
        "startid": 36,
        "endid": 37,
        "metadata": {
          "class": "approach",
          "arm": "east",
          "lane": 5,
          "speed_limit": 100.0
        }
      },
      "geometry": {
        "type": "LineString",
        "coordinates": [
          [
            6.5,
            0.25
          ],
          [
            5.0,
            0.25
          ]
        ]
      }
    },
    {
      "type": "Feature",
      "properties": {
        "id": 42,
        "startid": 37,
        "endid": 38,
        "metadata": {
          "class": "approach",
          "arm": "east",
          "lane": 5,
          "speed_limit": 100.0
        }
      },
      "geometry": {
        "type": "LineString",
        "coordinates": [
          [
            5.0,
            0.25
          ],
          [
            3.5,
            0.25
          ]
        ]
      }
    },
    {
      "type": "Feature",
      "properties": {
        "id": 43,
        "startid": 38,
        "endid": 39,
        "metadata": {
          "class": "approach",
          "arm": "east",
          "lane": 5,
          "speed_limit": 100.0
        }
      },
      "geometry": {
        "type": "LineString",
        "coordinates": [
          [
            3.5,
            0.25
          ],
          [
            2.0,
            0.25
          ]
        ]
      }
    },
    {
      "type": "Feature",
      "properties": {
        "id": 44,
        "startid": 39,
        "endid": 40,
        "metadata": {
          "class": "approach",
          "arm": "east",
          "lane": 5,
          "speed_limit": 100.0
        }
      },
      "geometry": {
        "type": "LineString",
        "coordinates": [
          [
            2.0,
            0.25
          ],
          [
            0.5,
            0.25
          ]
        ]
      }
    },
    {
      "type": "Feature",
      "properties": {
        "id": 50,
        "startid": 45,
        "endid": 46,
        "metadata": {
          "class": "departure",
          "arm": "east",
          "lane": 6,
          "speed_limit": 100.0
        }
      },
      "geometry": {
        "type": "LineString",
        "coordinates": [
          [
            0.5,
            -0.25
          ],
          [
            2.0,
            -0.25
          ]
        ]
      }
    },
    {
      "type": "Feature",
      "properties": {
        "id": 51,
        "startid": 46,
        "endid": 47,
        "metadata": {
          "class": "departure",
          "arm": "east",
          "lane": 6,
          "speed_limit": 100.0
        }
      },
      "geometry": {
        "type": "LineString",
        "coordinates": [
          [
            2.0,
            -0.25
          ],
          [
            3.5,
            -0.25
          ]
        ]
      }
    },
    {
      "type": "Feature",
      "properties": {
        "id": 52,
        "startid": 47,
        "endid": 48,
        "metadata": {
          "class": "departure",
          "arm": "east",
          "lane": 6,
          "speed_limit": 100.0
        }
      },
      "geometry": {
        "type": "LineString",
        "coordinates": [
          [
            3.5,
            -0.25
          ],
          [
            5.0,
            -0.25
          ]
        ]
      }
    },
    {
      "type": "Feature",
      "properties": {
        "id": 53,
        "startid": 48,
        "endid": 49,
        "metadata": {
          "class": "departure",
          "arm": "east",
          "lane": 6,
          "speed_limit": 100.0
        }
      },
      "geometry": {
        "type": "LineString",
        "coordinates": [
          [
            5.0,
            -0.25
          ],
          [
            6.5,
            -0.25
          ]
        ]
      }
    },
    {
      "type": "Feature",
      "properties": {
        "id": 59,
        "startid": 54,
        "endid": 55,
        "metadata": {
          "class": "approach",
          "arm": "west",
          "lane": 7,
          "speed_limit": 100.0
        }
      },
      "geometry": {
        "type": "LineString",
        "coordinates": [
          [
            -6.5,
            -0.25
          ],
          [
            -5.0,
            -0.25
          ]
        ]
      }
    },
    {
      "type": "Feature",
      "properties": {
        "id": 60,
        "startid": 55,
        "endid": 56,
        "metadata": {
          "class": "approach",
          "arm": "west",
          "lane": 7,
          "speed_limit": 100.0
        }
      },
      "geometry": {
        "type": "LineString",
        "coordinates": [
          [
            -5.0,
            -0.25
          ],
          [
            -3.5,
            -0.25
          ]
        ]
      }
    },
    {
      "type": "Feature",
      "properties": {
        "id": 61,
        "startid": 56,
        "endid": 57,
        "metadata": {
          "class": "approach",
          "arm": "west",
          "lane": 7,
          "speed_limit": 100.0
        }
      },
      "geometry": {
        "type": "LineString",
        "coordinates": [
          [
            -3.5,
            -0.25
          ],
          [
            -2.0,
            -0.25
          ]
        ]
      }
    },
    {
      "type": "Feature",
      "properties": {
        "id": 62,
        "startid": 57,
        "endid": 58,
        "metadata": {
          "class": "approach",
          "arm": "west",
          "lane": 7,
          "speed_limit": 100.0
        }
      },
      "geometry": {
        "type": "LineString",
        "coordinates": [
          [
            -2.0,
            -0.25
          ],
          [
            -0.5,
            -0.25
          ]
        ]
      }
    },
    {
      "type": "Feature",
      "properties": {
        "id": 68,
        "startid": 63,
        "endid": 64,
        "metadata": {
          "class": "departure",
          "arm": "west",
          "lane": 8,
          "speed_limit": 100.0
        }
      },
      "geometry": {
        "type": "LineString",
        "coordinates": [
          [
            -0.5,
            0.25
          ],
          [
            -2.0,
            0.25
          ]
        ]
      }
    },
    {
      "type": "Feature",
      "properties": {
        "id": 69,
        "startid": 64,
        "endid": 65,
        "metadata": {
          "class": "departure",
          "arm": "west",
          "lane": 8,
          "speed_limit": 100.0
        }
      },
      "geometry": {
        "type": "LineString",
        "coordinates": [
          [
            -2.0,
            0.25
          ],
          [
            -3.5,
            0.25
          ]
        ]
      }
    },
    {
      "type": "Feature",
      "properties": {
        "id": 70,
        "startid": 65,
        "endid": 66,
        "metadata": {
          "class": "departure",
          "arm": "west",
          "lane": 8,
          "speed_limit": 100.0
        }
      },
      "geometry": {
        "type": "LineString",
        "coordinates": [
          [
            -3.5,
            0.25
          ],
          [
            -5.0,
            0.25
          ]
        ]
      }
    },
    {
      "type": "Feature",
      "properties": {
        "id": 71,
        "startid": 66,
        "endid": 67,
        "metadata": {
          "class": "departure",
          "arm": "west",
          "lane": 8,
          "speed_limit": 100.0
        }
      },
      "geometry": {
        "type": "LineString",
        "coordinates": [
          [
            -5.0,
            0.25
          ],
          [
            -6.5,
            0.25
          ]
        ]
      }
    }
  ]
}