/*
 * Author: Prajwal Thakur <prajwalthakur98@gmail.com>
 */
{
  "type": "FeatureCollection",
  "name": "intersection_route_graph",
  "crs": {
    "type": "name",
    "properties": {
      "name": "urn:ogc:def:crs:EPSG::3857"
    }
  },
  "features": [
    {
      "type": "Feature",
      "properties": {
        "id": 0,
        "frame": "map",
        "metadata": {
          "lane": 1,
          "arm": "north",
          "direction": "incoming",
          "t": 0.0,
          "role": "terminal"
        }
      },
      "geometry": {
        "type": "Point",
        "coordinates": [
          -0.25,
          6.5
        ]
      }
    },
    {
      "type": "Feature",
      "properties": {
        "id": 1,
        "frame": "map",
        "metadata": {
          "lane": 1,
          "arm": "north",
          "direction": "incoming",
          "t": 0.25,
          "role": "interior"
        }
      },
      "geometry": {
        "type": "Point",
        "coordinates": [
          -0.25,
          5.0
        ]
      }
    },
    {
      "type": "Feature",
      "properties": {
        "id": 2,
        "frame": "map",
        "metadata": {
          "lane": 1,
          "arm": "north",
          "direction": "incoming",
          "t": 0.5,
          "role": "interior"
        }
      },
      "geometry": {
        "type": "Point",
        "coordinates": [
          -0.25,
          3.5
        ]
      }
    },
    {
      "type": "Feature",
      "properties": {
        "id": 3,
        "frame": "map",
        "metadata": {
          "lane": 1,
          "arm": "north",
          "direction": "incoming",
          "t": 0.75,
          "role": "interior"
        }
      },
      "geometry": {
        "type": "Point",
        "coordinates": [
          -0.25,
          2.0
        ]
      }
    },
    {
      "type": "Feature",
      "properties": {
        "id": 4,
        "frame": "map",
        "metadata": {
          "lane": 1,
          "arm": "north",
          "direction": "incoming",
          "t": 1.0,
          "role": "terminal"
        }
      },
      "geometry": {
        "type": "Point",
        "coordinates": [
          -0.25,
          0.5
        ]
      }
    },
    {
      "type": "Feature",
      "properties": {
        "id": 9,
        "frame": "map",
        "metadata": {
          "lane": 2,
          "arm": "north",
          "direction": "outgoing",
          "t": 0.0,
          "role": "terminal"
        }
      },
      "geometry": {
        "type": "Point",
        "coordinates": [
          0.25,
          0.5
        ]
      }
    },
    {
      "type": "Feature",
      "properties": {
        "id": 10,
        "frame": "map",
        "metadata": {
          "lane": 2,
          "arm": "north",
          "direction": "outgoing",
          "t": 0.25,
          "role": "interior"
        }
      },
      "geometry": {
        "type": "Point",
        "coordinates": [
          0.25,
          2.0
        ]
      }
    },
    {
      "type": "Feature",
      "properties": {
        "id": 11,
        "frame": "map",
        "metadata": {
          "lane": 2,
          "arm": "north",
          "direction": "outgoing",
          "t": 0.5,
          "role": "interior"
        }
      },
      "geometry": {
        "type": "Point",
        "coordinates": [
          0.25,
          3.5
        ]
      }
    },
    {
      "type": "Feature",
      "properties": {
        "id": 12,
        "frame": "map",
        "metadata": {
          "lane": 2,
          "arm": "north",
          "direction": "outgoing",
          "t": 0.75,
          "role": "interior"
        }
      },
      "geometry": {
        "type": "Point",
        "coordinates": [
          0.25,
          5.0
        ]
      }
    },
    {
      "type": "Feature",
      "properties": {
        "id": 13,
        "frame": "map",
        "metadata": {
          "lane": 2,
          "arm": "north",
          "direction": "outgoing",
          "t": 1.0,
          "role": "terminal"
        }
      },
      "geometry": {
        "type": "Point",
        "coordinates": [
          0.25,
          6.5
        ]
      }
    },
    {
      "type": "Feature",
      "properties": {
        "id": 18,
        "frame": "map",
        "metadata": {
          "lane": 3,
          "arm": "south",
          "direction": "incoming",
          "t": 0.0,
          "role": "terminal"
        }
      },
      "geometry": {
        "type": "Point",
        "coordinates": [
          0.25,
          -6.5
        ]
      }
    },
    {
      "type": "Feature",
      "properties": {
        "id": 19,
        "frame": "map",
        "metadata": {
          "lane": 3,
          "arm": "south",
          "direction": "incoming",
          "t": 0.25,
          "role": "interior"
        }
      },
      "geometry": {
        "type": "Point",
        "coordinates": [
          0.25,
          -5.0
        ]
      }
    },
    {
      "type": "Feature",
      "properties": {
        "id": 20,
        "frame": "map",
        "metadata": {
          "lane": 3,
          "arm": "south",
          "direction": "incoming",
          "t": 0.5,
          "role": "interior"
        }
      },
      "geometry": {
        "type": "Point",
        "coordinates": [
          0.25,
          -3.5
        ]
      }
    },
    {
      "type": "Feature",
      "properties": {
        "id": 21,
        "frame": "map",
        "metadata": {
          "lane": 3,
          "arm": "south",
          "direction": "incoming",
          "t": 0.75,
          "role": "interior"
        }
      },
      "geometry": {
        "type": "Point",
        "coordinates": [
          0.25,
          -2.0
        ]
      }
    },
    {
      "type": "Feature",
      "properties": {
        "id": 22,
        "frame": "map",
        "metadata": {
          "lane": 3,
          "arm": "south",
          "direction": "incoming",
          "t": 1.0,
          "role": "terminal"
        }
      },
      "geometry": {
        "type": "Point",
        "coordinates": [
          0.25,
          -0.5
        ]
      }
    },
    {
      "type": "Feature",
      "properties": {
        "id": 27,
        "frame": "map",
        "metadata": {
          "lane": 4,
          "arm": "south",
          "direction": "outgoing",
          "t": 0.0,
          "role": "terminal"
        }
      },
      "geometry": {
        "type": "Point",
        "coordinates": [
          -0.25,
          -0.5
        ]
      }
    },
    {
      "type": "Feature",
      "properties": {
        "id": 28,
        "frame": "map",
        "metadata": {
          "lane": 4,
          "arm": "south",
          "direction": "outgoing",
          "t": 0.25,
          "role": "interior"
        }
      },
      "geometry": {
        "type": "Point",
        "coordinates": [
          -0.25,
          -2.0
        ]
      }
    },
    {
      "type": "Feature",
      "properties": {
        "id": 29,
        "frame": "map",
        "metadata": {
          "lane": 4,
          "arm": "south",
          "direction": "outgoing",
          "t": 0.5,
          "role": "interior"
        }
      },
      "geometry": {
        "type": "Point",
        "coordinates": [
          -0.25,
          -3.5
        ]
      }
    },
    {
      "type": "Feature",
      "properties": {
        "id": 30,
        "frame": "map",
        "metadata": {
          "lane": 4,
          "arm": "south",
          "direction": "outgoing",
          "t": 0.75,
          "role": "interior"
        }
      },
      "geometry": {
        "type": "Point",
        "coordinates": [
          -0.25,
          -5.0
        ]
      }
    },
    {
      "type": "Feature",
      "properties": {
        "id": 31,
        "frame": "map",
        "metadata": {
          "lane": 4,
          "arm": "south",
          "direction": "outgoing",
          "t": 1.0,
          "role": "terminal"
        }
      },
      "geometry": {
        "type": "Point",
        "coordinates": [
          -0.25,
          -6.5
        ]
      }
    },
    {
      "type": "Feature",
      "properties": {
        "id": 36,
        "frame": "map",
        "metadata": {
          "lane": 5,
          "arm": "east",
          "direction": "incoming",
          "t": 0.0,
          "role": "terminal"
        }
      },
      "geometry": {
        "type": "Point",
        "coordinates": [
          6.5,
          0.25
        ]
      }
    },
    {
      "type": "Feature",
      "properties": {
        "id": 37,
        "frame": "map",
        "metadata": {
          "lane": 5,
          "arm": "east",
          "direction": "incoming",
          "t": 0.25,
          "role": "interior"
        }
      },
      "geometry": {
        "type": "Point",
        "coordinates": [
          5.0,
          0.25
        ]
      }
    },
    {
      "type": "Feature",
      "properties": {
        "id": 38,
        "frame": "map",
        "metadata": {
          "lane": 5,
          "arm": "east",
          "direction": "incoming",
          "t": 0.5,
          "role": "interior"
        }
      },
      "geometry": {
        "type": "Point",
        "coordinates": [
          3.5,
          0.25
        ]
      }
    },
    {
      "type": "Feature",
      "properties": {
        "id": 39,
        "frame": "map",
        "metadata": {
          "lane": 5,
          "arm": "east",
          "direction": "incoming",
          "t": 0.75,
          "role": "interior"
        }
      },
      "geometry": {
        "type": "Point",
        "coordinates": [
          2.0,
          0.25
        ]
      }
    },
    {
      "type": "Feature",
      "properties": {
        "id": 40,
        "frame": "map",
        "metadata": {
          "lane": 5,
          "arm": "east",
          "direction": "incoming",
          "t": 1.0,
          "role": "terminal"
        }
      },
      "geometry": {
        "type": "Point",
        "coordinates": [
          0.5,
          0.25
        ]
      }
    },
    {
      "type": "Feature",
      "properties": {
        "id": 45,
        "frame": "map",
        "metadata": {
          "lane": 6,
          "arm": "east",
          "direction": "outgoing",
          "t": 0.0,
          "role": "terminal"
        }
      },
      "geometry": {
        "type": "Point",
        "coordinates": [
          0.5,
          -0.25
        ]
      }
    },
    {
      "type": "Feature",
      "properties": {
        "id": 46,
        "frame": "map",
        "metadata": {
          "lane": 6,
          "arm": "east",
          "direction": "outgoing",
          "t": 0.25,
          "role": "interior"
        }
      },
      "geometry": {
        "type": "Point",
        "coordinates": [
          2.0,
          -0.25
        ]
      }
    },
    {
      "type": "Feature",
      "properties": {
        "id": 47,
        "frame": "map",
        "metadata": {
          "lane": 6,
          "arm": "east",
          "direction": "outgoing",
          "t": 0.5,
          "role": "interior"
        }
      },
      "geometry": {
        "type": "Point",
        "coordinates": [
          3.5,
          -0.25
        ]
      }
    },
    {
      "type": "Feature",
      "properties": {
        "id": 48,
        "frame": "map",
        "metadata": {
          "lane": 6,
          "arm": "east",
          "direction": "outgoing",
          "t": 0.75,
          "role": "interior"
        }
      },
      "geometry": {
        "type": "Point",
        "coordinates": [
          5.0,
          -0.25
        ]
      }
    },
    {
      "type": "Feature",
      "properties": {
        "id": 49,
        "frame": "map",
        "metadata": {
          "lane": 6,
          "arm": "east",
          "direction": "outgoing",
          "t": 1.0,
          "role": "terminal"
        }
      },
      "geometry": {
        "type": "Point",
        "coordinates": [
          6.5,
          -0.25
        ]
      }
    },
    {
      "type": "Feature",
      "properties": {
        "id": 54,
        "frame": "map",
        "metadata": {
          "lane": 7,
          "arm": "west",
          "direction": "incoming",
          "t": 0.0,
          "role": "terminal"
        }
      },
      "geometry": {
        "type": "Point",
        "coordinates": [
          -6.5,
          -0.25
        ]
      }
    },
    {
      "type": "Feature",
      "properties": {
        "id": 55,
        "frame": "map",
        "metadata": {
          "lane": 7,
          "arm": "west",
          "direction": "incoming",
          "t": 0.25,
          "role": "interior"
        }
      },
      "geometry": {
        "type": "Point",
        "coordinates": [
          -5.0,
          -0.25
        ]
      }
    },
    {
      "type": "Feature",
      "properties": {
        "id": 56,
        "frame": "map",
        "metadata": {
          "lane": 7,
          "arm": "west",
          "direction": "incoming",
          "t": 0.5,
          "role": "interior"
        }
      },
      "geometry": {
        "type": "Point",
        "coordinates": [
          -3.5,
          -0.25
        ]
      }
    },
    {
      "type": "Feature",
      "properties": {
        "id": 57,
        "frame": "map",
        "metadata": {
          "lane": 7,
          "arm": "west",
          "direction": "incoming",
          "t": 0.75,
          "role": "interior"
        }
      },
      "geometry": {
        "type": "Point",
        "coordinates": [
          -2.0,
          -0.25
        ]
      }
    },
    {
      "type": "Feature",
      "properties": {
        "id": 58,
        "frame": "map",
        "metadata": {
          "lane": 7,
          "arm": "west",
          "direction": "incoming",
          "t": 1.0,
          "role": "terminal"
        }
      },
      "geometry": {
        "type": "Point",
        "coordinates": [
          -0.5,
          -0.25
        ]
      }
    },
    {
      "type": "Feature",
      "properties": {
        "id": 63,
        "frame": "map",
        "metadata": {
          "lane": 8,
          "arm": "west",
          "direction": "outgoing",
          "t": 0.0,
          "role": "terminal"
        }
      },
      "geometry": {
        "type": "Point",
        "coordinates": [
          -0.5,
          0.25
        ]
      }
    },
    {
      "type": "Feature",
      "properties": {
        "id": 64,
        "frame": "map",
        "metadata": {
          "lane": 8,
          "arm": "west",
          "direction": "outgoing",
          "t": 0.25,
          "role": "interior"
        }
      },
      "geometry": {
        "type": "Point",
        "coordinates": [
          -2.0,
          0.25
        ]
      }
    },
    {
      "type": "Feature",
      "properties": {
        "id": 65,
        "frame": "map",
        "metadata": {
          "lane": 8,
          "arm": "west",
          "direction": "outgoing",
          "t": 0.5,
          "role": "interior"
        }
      },
      "geometry": {
        "type": "Point",
        "coordinates": [
          -3.5,
          0.25
        ]
      }
    },
    {
      "type": "Feature",
      "properties": {
        "id": 66,
        "frame": "map",
        "metadata": {
          "lane": 8,
          "arm": "west",
          "direction": "outgoing",
          "t": 0.75,
          "role": "interior"
        }
      },
      "geometry": {
        "type": "Point",
        "coordinates": [
          -5.0,
          0.25
        ]
      }
    },
    {
      "type": "Feature",
      "properties": {
        "id": 67,
        "frame": "map",
        "metadata": {
          "lane": 8,
          "arm": "west",
          "direction": "outgoing",
          "t": 1.0,
          "role": "terminal"
        }
      },
      "geometry": {
        "type": "Point",
        "coordinates": [
          -6.5,
          0.25
        ]
      }
    },
    {
      "type": "Feature",
      "properties": {
        "id": 72,
        "frame": "map",
        "metadata": {
          "connector": "north_to_east",
          "class": "left_turn"
        }
      },
      "geometry": {
        "type": "Point",
        "coordinates": [
          -0.25,
          -0.1
        ]
      }
    },
    {
      "type": "Feature",
      "properties": {
        "id": 73,
        "frame": "map",
        "metadata": {
          "connector": "north_to_east",
          "class": "left_turn"
        }
      },
      "geometry": {
        "type": "Point",
        "coordinates": [
          -0.388582,
          -0.192597
        ]
      }
    },
    {
      "type": "Feature",
      "properties": {
        "id": 74,
        "frame": "map",
        "metadata": {
          "connector": "north_to_east",
          "class": "left_turn"
        }
      },
      "geometry": {
        "type": "Point",
        "coordinates": [
          -0.4,
          -0.25
        ]
      }
    },
    {
      "type": "Feature",
      "properties": {
        "id": 79,
        "frame": "map",
        "metadata": {
          "connector": "north_to_south",
          "class": "straight_through"
        }
      },
      "geometry": {
        "type": "Point",
        "coordinates": [
          -0.25,
          0.0
        ]
      }
    },
    {
      "type": "Feature",
      "properties": {
        "id": 82,
        "frame": "map",
        "metadata": {
          "connector": "north_to_west",
          "class": "right_turn"
        }
      },
      "geometry": {
        "type": "Point",
        "coordinates": [
          -0.25,
          0.4
        ]
      }
    },
    {
      "type": "Feature",
      "properties": {
        "id": 83,
        "frame": "map",
        "metadata": {
          "connector": "north_to_west",
          "class": "right_turn"
        }
      },
      "geometry": {
        "type": "Point",
        "coordinates": [
          -0.111418,
          0.307403
        ]
      }
    },
    {
      "type": "Feature",
      "properties": {
        "id": 84,
        "frame": "map",
        "metadata": {
          "connector": "north_to_west",
          "class": "right_turn"
        }
      },
      "geometry": {
        "type": "Point",
        "coordinates": [
          -0.1,
          0.25
        ]
      }
    },
    {
      "type": "Feature",
      "properties": {
        "id": 89,
        "frame": "map",
        "metadata": {
          "connector": "east_to_south",
          "class": "left_turn"
        }
      },
      "geometry": {
        "type": "Point",
        "coordinates": [
          -0.1,
          0.25
        ]
      }
    },
    {
      "type": "Feature",
      "properties": {
        "id": 90,
        "frame": "map",
        "metadata": {
          "connector": "east_to_south",
          "class": "left_turn"
        }
      },
      "geometry": {
        "type": "Point",
        "coordinates": [
          -0.192597,
          0.388582
        ]
      }
    },
    {
      "type": "Feature",
      "properties": {
        "id": 91,
        "frame": "map",
        "metadata": {
          "connector": "east_to_south",
          "class": "left_turn"
        }
      },
      "geometry": {
        "type": "Point",
        "coordinates": [
          -0.25,
          0.4
        ]
      }
    },
    {
      "type": "Feature",
      "properties": {
        "id": 96,
        "frame": "map",
        "metadata": {
          "connector": "east_to_west",
          "class": "straight_through"
        }
      },
      "geometry": {
        "type": "Point",
        "coordinates": [
          0.0,
          0.25
        ]
      }
    },
    {
      "type": "Feature",
      "properties": {
        "id": 99,
        "frame": "map",
        "metadata": {
          "connector": "east_to_north",
          "class": "right_turn"
        }
      },
      "geometry": {
        "type": "Point",
        "coordinates": [
          0.4,
          0.25
        ]
      }
    },
    {
      "type": "Feature",
      "properties": {
        "id": 100,
        "frame": "map",
        "metadata": {
          "connector": "east_to_north",
          "class": "right_turn"
        }
      },
      "geometry": {
        "type": "Point",
        "coordinates": [
          0.307403,
          0.111418
        ]
      }
    },
    {
      "type": "Feature",
      "properties": {
        "id": 101,
        "frame": "map",
        "metadata": {
          "connector": "east_to_north",
          "class": "right_turn"
        }
      },
      "geometry": {
        "type": "Point",
        "coordinates": [
          0.25,
          0.1
        ]
      }
    },
    {
      "type": "Feature",
      "properties": {
        "id": 106,
        "frame": "map",
        "metadata": {
          "connector": "south_to_west",
          "class": "left_turn"
        }
      },
      "geometry": {
        "type": "Point",
        "coordinates": [
          0.25,
          0.1
        ]
      }
    },
    {
      "type": "Feature",
      "properties": {
        "id": 107,
        "frame": "map",
        "metadata": {
          "connector": "south_to_west",
          "class": "left_turn"
        }
      },
      "geometry": {
        "type": "Point",
        "coordinates": [
          0.388582,
          0.192597
        ]
      }
    },
    {
      "type": "Feature",
      "properties": {
        "id": 108,
        "frame": "map",
        "metadata": {
          "connector": "south_to_west",
          "class": "left_turn"
        }
      },
      "geometry": {
        "type": "Point",
        "coordinates": [
          0.4,
          0.25
        ]
      }
    },
    {
      "type": "Feature",
      "properties": {
        "id": 113,
        "frame": "map",
        "metadata": {
          "connector": "south_to_north",
          "class": "straight_through"
        }
      },
      "geometry": {
        "type": "Point",
        "coordinates": [
          0.25,
          0.0
        ]
      }
    },
    {
      "type": "Feature",
      "properties": {
        "id": 116,
        "frame": "map",
        "metadata": {
          "connector": "south_to_east",
          "class": "right_turn"
        }
      },
      "geometry": {
        "type": "Point",
        "coordinates": [
          0.25,
          -0.4
        ]
      }
    },
    {
      "type": "Feature",
      "properties": {
        "id": 117,
        "frame": "map",
        "metadata": {
          "connector": "south_to_east",
          "class": "right_turn"
        }
      },
      "geometry": {
        "type": "Point",
        "coordinates": [
          0.111418,
          -0.307403
        ]
      }
    },
    {
      "type": "Feature",
      "properties": {
        "id": 118,
        "frame": "map",
        "metadata": {
          "connector": "south_to_east",
          "class": "right_turn"
        }
      },
      "geometry": {
        "type": "Point",
        "coordinates": [
          0.1,
          -0.25
        ]
      }
    },
    {
      "type": "Feature",
      "properties": {
        "id": 123,
        "frame": "map",
        "metadata": {
          "connector": "west_to_north",
          "class": "left_turn"
        }
      },
      "geometry": {
        "type": "Point",
        "coordinates": [
          0.1,
          -0.25
        ]
      }
    },
    {
      "type": "Feature",
      "properties": {
        "id": 124,
        "frame": "map",
        "metadata": {
          "connector": "west_to_north",
          "class": "left_turn"
        }
      },
      "geometry": {
        "type": "Point",
        "coordinates": [
          0.192597,
          -0.388582
        ]
      }
    },
    {
      "type": "Feature",
      "properties": {
        "id": 125,
        "frame": "map",
        "metadata": {
          "connector": "west_to_north",
          "class": "left_turn"
        }
      },
      "geometry": {
        "type": "Point",
        "coordinates": [
          0.25,
          -0.4
        ]
      }
    },
    {
      "type": "Feature",
      "properties": {
        "id": 130,
        "frame": "map",
        "metadata": {
          "connector": "west_to_east",
          "class": "straight_through"
        }
      },
      "geometry": {
        "type": "Point",
        "coordinates": [
          0.0,
          -0.25
        ]
      }
    },
    {
      "type": "Feature",
      "properties": {
        "id": 133,
        "frame": "map",
        "metadata": {
          "connector": "west_to_south",
          "class": "right_turn"
        }
      },
      "geometry": {
        "type": "Point",
        "coordinates": [
          -0.4,
          -0.25
        ]
      }
    },
    {
      "type": "Feature",
      "properties": {
        "id": 134,
        "frame": "map",
        "metadata": {
          "connector": "west_to_south",
          "class": "right_turn"
        }
      },
      "geometry": {
        "type": "Point",
        "coordinates": [
          -0.307403,
          -0.111418
        ]
      }
    },
    {
      "type": "Feature",
      "properties": {
        "id": 135,
        "frame": "map",
        "metadata": {
          "connector": "west_to_south",
          "class": "right_turn"
        }
      },
      "geometry": {
        "type": "Point",
        "coordinates": [
          -0.25,
          -0.1
        ]
      }
    },
    {
      "type": "Feature",
      "properties": {
        "id": 5,
        "startid": 0,
        "endid": 1,
        "metadata": {
          "class": "approach",
          "arm": "north",
          "lane": 1,
          "speed_limit": 100.0
        }
      },
      "geometry": {
        "type": "LineString",
        "coordinates": [
          [
            -0.25,
            6.5
          ],
          [
            -0.25,
            5.0
          ]
        ]
      }
    },
    {
      "type": "Feature",
      "properties": {
        "id": 6,
        "startid": 1,
        "endid": 2,
        "metadata": {
          "class": "approach",
          "arm": "north",
          "lane": 1,
          "speed_limit": 100.0
        }
      },
      "geometry": {
        "type": "LineString",
        "coordinates": [
          [
            -0.25,
            5.0
          ],
          [
            -0.25,
            3.5
          ]
        ]
      }
    },
    {
      "type": "Feature",
      "properties": {
        "id": 7,
        "startid": 2,
        "endid": 3,
        "metadata": {
          "class": "approach",
          "arm": "north",
          "lane": 1,
          "speed_limit": 100.0
        }
      },
      "geometry": {
        "type": "LineString",
        "coordinates": [
          [
            -0.25,
            3.5
          ],
          [
            -0.25,
            2.0
          ]
        ]
      }
    },
    {
      "type": "Feature",
      "properties": {
        "id": 8,
        "startid": 3,
        "endid": 4,
        "metadata": {
          "class": "approach",
          "arm": "north",
          "lane": 1,
          "speed_limit": 100.0
        }
      },
      "geometry": {
        "type": "LineString",
        "coordinates": [
          [
            -0.25,
            2.0
          ],
          [
            -0.25,
            0.5
          ]
        ]
      }
    },
    {
      "type": "Feature",
      "properties": {
        "id": 14,
        "startid": 9,
        "endid": 10,
        "metadata": {
          "class": "departure",
          "arm": "north",
          "lane": 2,
          "speed_limit": 100.0
        }
      },
      "geometry": {
        "type": "LineString",
        "coordinates": [
          [
            0.25,
            0.5
          ],
          [
            0.25,
            2.0
          ]
        ]
      }
    },
    {
      "type": "Feature",
      "properties": {
        "id": 15,
        "startid": 10,
        "endid": 11,
        "metadata": {
          "class": "departure",
          "arm": "north",
          "lane": 2,
          "speed_limit": 100.0
        }
      },
      "geometry": {
        "type": "LineString",
        "coordinates": [
          [
            0.25,
            2.0
          ],
          [
            0.25,
            3.5
          ]
        ]
      }
    },
    {
      "type": "Feature",
      "properties": {
        "id": 16,
        "startid": 11,
        "endid": 12,
        "metadata": {
          "class": "departure",
          "arm": "north",
          "lane": 2,
          "speed_limit": 100.0
        }
      },
      "geometry": {
        "type": "LineString",
        "coordinates": [
          [
            0.25,
            3.5
          ],
          [
            0.25,
            5.0
          ]
        ]
      }
    },
    {
      "type": "Feature",
      "properties": {
        "id": 17,
        "startid": 12,
        "endid": 13,
        "metadata": {
          "class": "departure",
          "arm": "north",
          "lane": 2,
          "speed_limit": 100.0
        }
      },
      "geometry": {
        "type": "LineString",
        "coordinates": [
          [
            0.25,
            5.0
          ],
          [
            0.25,
            6.5
          ]
        ]
      }
    },
    {
      "type": "Feature",
      "properties": {
        "id": 23,
        "startid": 18,
        "endid": 19,
        "metadata": {
          "class": "approach",
          "arm": "south",
          "lane": 3,
          "speed_limit": 100.0
        }
      },
      "geometry": {
        "type": "LineString",
        "coordinates": [
          [
            0.25,
            -6.5
          ],
          [
            0.25,
            -5.0
          ]
        ]
      }
    },
    {
      "type": "Feature",
      "properties": {
        "id": 24,
        "startid": 19,
        "endid": 20,
        "metadata": {
          "class": "approach",
          "arm": "south",
          "lane": 3,
          "speed_limit": 100.0
        }
      },
      "geometry": {
        "type": "LineString",
        "coordinates": [
          [
            0.25,
            -5.0
          ],
          [
            0.25,
            -3.5
          ]
        ]
      }
    },
    {
      "type": "Feature",
      "properties": {
        "id": 25,
        "startid": 20,
        "endid": 21,
        "metadata": {
          "class": "approach",
          "arm": "south",
          "lane": 3,
          "speed_limit": 100.0
        }
      },
      "geometry": {
        "type": "LineString",
        "coordinates": [
          [
            0.25,
            -3.5
          ],
          [
            0.25,
            -2.0
          ]
        ]
      }
    },
    {
      "type": "Feature",
      "properties": {
        "id": 26,
        "startid": 21,
        "endid": 22,
        "metadata": {
          "class": "approach",
          "arm": "south",
          "lane": 3,
          "speed_limit": 100.0
        }
      },
      "geometry": {
        "type": "LineString",
        "coordinates": [
          [
            0.25,
            -2.0
          ],
          [
            0.25,
            -0.5
          ]
        ]
      }
    },
    {
      "type": "Feature",
      "properties": {
        "id": 32,
        "startid": 27,
        "endid": 28,
        "metadata": {
          "class": "departure",
          "arm": "south",
          "lane": 4,
          "speed_limit": 100.0
        }
      },
      "geometry": {
        "type": "LineString",
        "coordinates": [
          [
            -0.25,
            -0.5
          ],
          [
            -0.25,
            -2.0
          ]
        ]
      }
    },
    {
      "type": "Feature",
      "properties": {
        "id": 33,
        "startid": 28,
        "endid": 29,
        "metadata": {
          "class": "departure",
          "arm": "south",
          "lane": 4,
          "speed_limit": 100.0
        }
      },
      "geometry": {
        "type": "LineString",
        "coordinates": [
          [
            -0.25,
            -2.0
          ],
          [
            -0.25,
            -3.5
          ]
        ]
      }
    },
    {
      "type": "Feature",
      "properties": {
        "id": 34,
        "startid": 29,
        "endid": 30,
        "metadata": {
          "class": "departure",
          "arm": "south",
          "lane": 4,
          "speed_limit": 100.0
        }
      },
      "geometry": {
        "type": "LineString",
        "coordinates": [
          [
            -0.25,
            -3.5
          ],
          [
            -0.25,
            -5.0
          ]
        ]
      }
    },
    {
      "type": "Feature",
      "properties": {
        "id": 35,
        "startid": 30,
        "endid": 31,
        "metadata": {
          "class": "departure",
          "arm": "south",
          "lane": 4,
          "speed_limit": 100.0
        }
      },
      "geometry": {
        "type": "LineString",
        "coordinates": [
          [
            -0.25,
            -5.0
          ],
          [
            -0.25,
            -6.5
          ]
        ]
      }
    },
    {
      "type": "Feature",
      "properties": {
        "id": 41,
        "startid": 36,
        "endid": 37,
        "metadata": {
          "class": "approach",
          "arm": "east",
          "lane": 5,
          "speed_limit": 100.0
        }
      },
      "geometry": {
        "type": "LineString",
        "coordinates": [
          [
            6.5,
            0.25
          ],
          [
            5.0,
            0.25
          ]
        ]
      }
    },
    {
      "type": "Feature",
      "properties": {
        "id": 42,
        "startid": 37,
        "endid": 38,
        "metadata": {
          "class": "approach",
          "arm": "east",
          "lane": 5,
          "speed_limit": 100.0
        }
      },
      "geometry": {
        "type": "LineString",
        "coordinates": [
          [
            5.0,
            0.25
          ],
          [
            3.5,
            0.25
          ]
        ]
      }
    },
    {
      "type": "Feature",
      "properties": {
        "id": 43,
        "startid": 38,
        "endid": 39,
        "metadata": {
          "class": "approach",
          "arm": "east",
          "lane": 5,
          "speed_limit": 100.0
        }
      },
      "geometry": {
        "type": "LineString",
        "coordinates": [
          [
            3.5,
            0.25
          ],
          [
            2.0,
            0.25
          ]
        ]
      }
    },
    {
      "type": "Feature",
      "properties": {
        "id": 44,
        "startid": 39,
        "endid": 40,
        "metadata": {
          "class": "approach",
          "arm": "east",
          "lane": 5,
          "speed_limit": 100.0
        }
      },
      "geometry": {
        "type": "LineString",
        "coordinates": [
          [
            2.0,
            0.25
          ],
          [
            0.5,
            0.25
          ]
        ]
      }
    },
    {
      "type": "Feature",
      "properties": {
        "id": 50,
        "startid": 45,
        "endid": 46,
        "metadata": {
          "class": "departure",
          "arm": "east",
          "lane": 6,
          "speed_limit": 100.0
        }
      },
      "geometry": {
        "type": "LineString",
        "coordinates": [
          [
            0.5,
            -0.25
          ],
          [
            2.0,
            -0.25
          ]
        ]
      }
    },
    {
      "type": "Feature",
      "properties": {
        "id": 51,
        "startid": 46,
        "endid": 47,
        "metadata": {
          "class": "departure",
          "arm": "east",
          "lane": 6,
          "speed_limit": 100.0
        }
      },
      "geometry": {
        "type": "LineString",
        "coordinates": [
          [
            2.0,
            -0.25
          ],
          [
            3.5,
            -0.25
          ]
        ]
      }
    },
    {
      "type": "Feature",
      "properties": {
        "id": 52,
        "startid": 47,
        "endid": 48,
        "metadata": {
          "class": "departure",
          "arm": "east",
          "lane": 6,
          "speed_limit": 100.0
        }
      },
      "geometry": {
        "type": "LineString",
        "coordinates": [
          [
            3.5,
            -0.25
          ],
          [
            5.0,
            -0.25
          ]
        ]
      }
    },
    {
      "type": "Feature",
      "properties": {
        "id": 53,
        "startid": 48,
        "endid": 49,
        "metadata": {
          "class": "departure",
          "arm": "east",
          "lane": 6,
          "speed_limit": 100.0
        }
      },
      "geometry": {
        "type": "LineString",
        "coordinates": [
          [
            5.0,
            -0.25
          ],
          [
            6.5,
            -0.25
          ]
        ]
      }
    },
    {
      "type": "Feature",
      "properties": {
        "id": 59,
        "startid": 54,
        "endid": 55,
        "metadata": {
          "class": "approach",
          "arm": "west",
          "lane": 7,
          "speed_limit": 100.0
        }
      },
      "geometry": {
        "type": "LineString",
        "coordinates": [
          [
            -6.5,
            -0.25
          ],
          [
            -5.0,
            -0.25
          ]
        ]
      }
    },
    {
      "type": "Feature",
      "properties": {
        "id": 60,
        "startid": 55,
        "endid": 56,
        "metadata": {
          "class": "approach",
          "arm": "west",
          "lane": 7,
          "speed_limit": 100.0
        }
      },
      "geometry": {
        "type": "LineString",
        "coordinates": [
          [
            -5.0,
            -0.25
          ],
          [
            -3.5,
            -0.25
          ]
        ]
      }
    },
    {
      "type": "Feature",
      "properties": {
        "id": 61,
        "startid": 56,
        "endid": 57,
        "metadata": {
          "class": "approach",
          "arm": "west",
          "lane": 7,
          "speed_limit": 100.0
        }
      },
      "geometry": {
        "type": "LineString",
        "coordinates": [
          [
            -3.5,
            -0.25
          ],
          [
            -2.0,
            -0.25
          ]
        ]
      }
    },
    {
      "type": "Feature",
      "properties": {
        "id": 62,
        "startid": 57,
        "endid": 58,
        "metadata": {
          "class": "approach",
          "arm": "west",
          "lane": 7,
          "speed_limit": 100.0
        }
      },
      "geometry": {
        "type": "LineString",
        "coordinates": [
          [
            -2.0,
            -0.25
          ],
          [
            -0.5,
            -0.25
          ]
        ]
      }
    },
    {
      "type": "Feature",
      "properties": {
        "id": 68,
        "startid": 63,
        "endid": 64,
        "metadata": {
          "class": "departure",
          "arm": "west",
          "lane": 8,
          "speed_limit": 100.0
        }
      },
      "geometry": {
        "type": "LineString",
        "coordinates": [
          [
            -0.5,
            0.25
          ],
          [
            -2.0,
            0.25
          ]
        ]
      }
    },
    {
      "type": "Feature",
      "properties": {
        "id": 69,
        "startid": 64,
        "endid": 65,
        "metadata": {
          "class": "departure",
          "arm": "west",
          "lane": 8,
          "speed_limit": 100.0
        }
      },
      "geometry": {
        "type": "LineString",
        "coordinates": [
          [
            -2.0,
            0.25
          ],
          [
            -3.5,
            0.25
          ]
        ]
      }
    },
    {
      "type": "Feature",
      "properties": {
        "id": 70,
        "startid": 65,
        "endid": 66,
        "metadata": {
          "class": "departure",
          "arm": "west",
          "lane": 8,
          "speed_limit": 100.0
        }
      },
      "geometry": {
        "type": "LineString",
        "coordinates": [
          [
            -3.5,
            0.25
          ],
          [
            -5.0,
            0.25
          ]
        ]
      }
    },
    {
      "type": "Feature",
      "properties": {
        "id": 71,
        "startid": 66,
        "endid": 67,
        "metadata": {
          "class": "departure",
          "arm": "west",
          "lane": 8,
          "speed_limit": 100.0
        }
      },
      "geometry": {
        "type": "LineString",
        "coordinates": [
          [
            -5.0,
            0.25
          ],
          [
            -6.5,
            0.25
          ]
        ]
      }
    },
    {
      "type": "Feature",
      "properties": {
        "id": 75,
        "startid": 4,
        "endid": 72,
        "metadata": {
          "class": "left_turn",
          "from_arm": "north",
          "to_arm": "east",
          "speed_limit": 40.0
        }
      },
      "geometry": {
        "type": "LineString",
        "coordinates": [
          [
            -0.25,
            0.5
          ],
          [
            -0.25,
            -0.1
          ]
        ]
      }
    },
    {
      "type": "Feature",
      "properties": {
        "id": 76,
        "startid": 72,
        "endid": 73,
        "metadata": {
          "class": "left_turn",
          "from_arm": "north",
          "to_arm": "east",
          "speed_limit": 40.0
        }
      },
      "geometry": {
        "type": "LineString",
        "coordinates": [
          [
            -0.25,
            -0.1
          ],
          [
            -0.388582,
            -0.192597
          ]
        ]
      }
    },
    {
      "type": "Feature",
      "properties": {
        "id": 77,
        "startid": 73,
        "endid": 74,
        "metadata": {
          "class": "left_turn",
          "from_arm": "north",
          "to_arm": "east",
          "speed_limit": 40.0
        }
      },
      "geometry": {
        "type": "LineString",
        "coordinates": [
          [
            -0.388582,
            -0.192597
          ],
          [
            -0.4,
            -0.25
          ]
        ]
      }
    },
    {
      "type": "Feature",
      "properties": {
        "id": 78,
        "startid": 74,
        "endid": 45,
        "metadata": {
          "class": "left_turn",
          "from_arm": "north",
          "to_arm": "east",
          "speed_limit": 40.0
        }
      },
      "geometry": {
        "type": "LineString",
        "coordinates": [
          [
            -0.4,
            -0.25
          ],
          [
            0.5,
            -0.25
          ]
        ]
      }
    },
    {
      "type": "Feature",
      "properties": {
        "id": 80,
        "startid": 4,
        "endid": 79,
        "metadata": {
          "class": "straight_through",
          "from_arm": "north",
          "to_arm": "south",
          "speed_limit": 100.0
        }
      },
      "geometry": {
        "type": "LineString",
        "coordinates": [
          [
            -0.25,
            0.5
          ],
          [
            -0.25,
            0.0
          ]
        ]
      }
    },
    {
      "type": "Feature",
      "properties": {
        "id": 81,
        "startid": 79,
        "endid": 27,
        "metadata": {
          "class": "straight_through",
          "from_arm": "north",
          "to_arm": "south",
          "speed_limit": 100.0
        }
      },
      "geometry": {
        "type": "LineString",
        "coordinates": [
          [
            -0.25,
            0.0
          ],
          [
            -0.25,
            -0.5
          ]
        ]
      }
    },
    {
      "type": "Feature",
      "properties": {
        "id": 85,
        "startid": 4,
        "endid": 82,
        "metadata": {
          "class": "right_turn",
          "from_arm": "north",
          "to_arm": "west",
          "speed_limit": 40.0
        }
      },
      "geometry": {
        "type": "LineString",
        "coordinates": [
          [
            -0.25,
            0.5
          ],
          [
            -0.25,
            0.4
          ]
        ]
      }
    },
    {
      "type": "Feature",
      "properties": {
        "id": 86,
        "startid": 82,
        "endid": 83,
        "metadata": {
          "class": "right_turn",
          "from_arm": "north",
          "to_arm": "west",
          "speed_limit": 40.0
        }
      },
      "geometry": {
        "type": "LineString",
        "coordinates": [
          [
            -0.25,
            0.4
          ],
          [
            -0.111418,
            0.307403
          ]
        ]
      }
    },
    {
      "type": "Feature",
      "properties": {
        "id": 87,
        "startid": 83,
        "endid": 84,
        "metadata": {
          "class": "right_turn",
          "from_arm": "north",
          "to_arm": "west",
          "speed_limit": 40.0
        }
      },
      "geometry": {
        "type": "LineString",
        "coordinates": [
          [
            -0.111418,
            0.307403
          ],
          [
            -0.1,
            0.25
          ]
        ]
      }
    },
    {
      "type": "Feature",
      "properties": {
        "id": 88,
        "startid": 84,
        "endid": 63,
        "metadata": {
          "class": "right_turn",
          "from_arm": "north",
          "to_arm": "west",
          "speed_limit": 40.0
        }
      },
      "geometry": {
        "type": "LineString",
        "coordinates": [
          [
            -0.1,
            0.25
          ],
          [
            -0.5,
            0.25
          ]
        ]
      }
    },
    {
      "type": "Feature",
      "properties": {
        "id": 92,
        "startid": 40,
        "endid": 89,
        "metadata": {
          "class": "left_turn",
          "from_arm": "east",
          "to_arm": "south",
          "speed_limit": 40.0
        }
      },
      "geometry": {
        "type": "LineString",
        "coordinates": [
          [
            0.5,
            0.25
          ],
          [
            -0.1,
            0.25
          ]
        ]
      }
    },
    {
      "type": "Feature",
      "properties": {
        "id": 93,
        "startid": 89,
        "endid": 90,
        "metadata": {
          "class": "left_turn",
          "from_arm": "east",
          "to_arm": "south",
          "speed_limit": 40.0
        }
      },
      "geometry": {
        "type": "LineString",
        "coordinates": [
          [
            -0.1,
            0.25
          ],
          [
            -0.192597,
            0.388582
          ]
        ]
      }
    },
    {
      "type": "Feature",
      "properties": {
        "id": 94,
        "startid": 90,
        "endid": 91,
        "metadata": {
          "class": "left_turn",
          "from_arm": "east",
          "to_arm": "south",
          "speed_limit": 40.0
        }
      },
      "geometry": {
        "type": "LineString",
        "coordinates": [
          [
            -0.192597,
            0.388582
          ],
          [
            -0.25,
            0.4
          ]
        ]
      }
    },
    {
      "type": "Feature",
      "properties": {
        "id": 95,
        "startid": 91,
        "endid": 27,
        "metadata": {
          "class": "left_turn",
          "from_arm": "east",
          "to_arm": "south",
          "speed_limit": 40.0
        }
      },
      "geometry": {
        "type": "LineString",
        "coordinates": [
          [
            -0.25,
            0.4
          ],
          [
            -0.25,
            -0.5
          ]
        ]
      }
    },
    {
      "type": "Feature",
      "properties": {
        "id": 97,
        "startid": 40,
        "endid": 96,
        "metadata": {
          "class": "straight_through",
          "from_arm": "east",
          "to_arm": "west",
          "speed_limit": 100.0
        }
      },
      "geometry": {
        "type": "LineString",
        "coordinates": [
          [
            0.5,
            0.25
          ],
          [
            0.0,
            0.25
          ]
        ]
      }
    },
    {
      "type": "Feature",
      "properties": {
        "id": 98,
        "startid": 96,
        "endid": 63,
        "metadata": {
          "class": "straight_through",
          "from_arm": "east",
          "to_arm": "west",
          "speed_limit": 100.0
        }
      },
      "geometry": {
        "type": "LineString",
        "coordinates": [
          [
            0.0,
            0.25
          ],
          [
            -0.5,
            0.25
          ]
        ]
      }
    },
    {
      "type": "Feature",
      "properties": {
        "id": 102,
        "startid": 40,
        "endid": 99,
        "metadata": {
          "class": "right_turn",
          "from_arm": "east",
          "to_arm": "north",
          "speed_limit": 40.0
        }
      },
      "geometry": {
        "type": "LineString",
        "coordinates": [
          [
            0.5,
            0.25
          ],
          [
            0.4,
            0.25
          ]
        ]
      }
    },
    {
      "type": "Feature",
      "properties": {
        "id": 103,
        "startid": 99,
        "endid": 100,
        "metadata": {
          "class": "right_turn",
          "from_arm": "east",
          "to_arm": "north",
          "speed_limit": 40.0
        }
      },
      "geometry": {
        "type": "LineString",
        "coordinates": [
          [
            0.4,
            0.25
          ],
          [
            0.307403,
            0.111418
          ]
        ]
      }
    },
    {
      "type": "Feature",
      "properties": {
        "id": 104,
        "startid": 100,
        "endid": 101,
        "metadata": {
          "class": "right_turn",
          "from_arm": "east",
          "to_arm": "north",
          "speed_limit": 40.0
        }
      },
      "geometry": {
        "type": "LineString",
        "coordinates": [
          [
            0.307403,
            0.111418
          ],
          [
            0.25,
            0.1
          ]
        ]
      }
    },
    {
      "type": "Feature",
      "properties": {
        "id": 105,
        "startid": 101,
        "endid": 9,
        "metadata": {
          "class": "right_turn",
          "from_arm": "east",
          "to_arm": "north",
          "speed_limit": 40.0
        }
      },
      "geometry": {
        "type": "LineString",
        "coordinates": [
          [
            0.25,
            0.1
          ],
          [
            0.25,
            0.5
          ]
        ]
      }
    },
    {
      "type": "Feature",
      "properties": {
        "id": 109,
        "startid": 22,
        "endid": 106,
        "metadata": {
          "class": "left_turn",
          "from_arm": "south",
          "to_arm": "west",
          "speed_limit": 40.0
        }
      },
      "geometry": {
        "type": "LineString",
        "coordinates": [
          [
            0.25,
            -0.5
          ],
          [
            0.25,
            0.1
          ]
        ]
      }
    },
    {
      "type": "Feature",
      "properties": {
        "id": 110,
        "startid": 106,
        "endid": 107,
        "metadata": {
          "class": "left_turn",
          "from_arm": "south",
          "to_arm": "west",
          "speed_limit": 40.0
        }
      },
      "geometry": {
        "type": "LineString",
        "coordinates": [
          [
            0.25,
            0.1
          ],
          [
            0.388582,
            0.192597
          ]
        ]
      }
    },
    {
      "type": "Feature",
      "properties": {
        "id": 111,
        "startid": 107,
        "endid": 108,
        "metadata": {
          "class": "left_turn",
          "from_arm": "south",
          "to_arm": "west",
          "speed_limit": 40.0
        }
      },
      "geometry": {
        "type": "LineString",
        "coordinates": [
          [
            0.388582,
            0.192597
          ],
          [
            0.4,
            0.25
          ]
        ]
      }
    },
    {
      "type": "Feature",
      "properties": {
        "id": 112,
        "startid": 108,
        "endid": 63,
        "metadata": {
          "class": "left_turn",
          "from_arm": "south",
          "to_arm": "west",
          "speed_limit": 40.0
        }
      },
      "geometry": {
        "type": "LineString",
        "coordinates": [
          [
            0.4,
            0.25
          ],
          [
            -0.5,
            0.25
          ]
        ]
      }
    },
    {
      "type": "Feature",
      "properties": {
        "id": 114,
        "startid": 22,
        "endid": 113,
        "metadata": {
          "class": "straight_through",
          "from_arm": "south",
          "to_arm": "north",
          "speed_limit": 100.0
        }
      },
      "geometry": {
        "type": "LineString",
        "coordinates": [
          [
            0.25,
            -0.5
          ],
          [
            0.25,
            0.0
          ]
        ]
      }
    },
    {
      "type": "Feature",
      "properties": {
        "id": 115,
        "startid": 113,
        "endid": 9,
        "metadata": {
          "class": "straight_through",
          "from_arm": "south",
          "to_arm": "north",
          "speed_limit": 100.0
        }
      },
      "geometry": {
        "type": "LineString",
        "coordinates": [
          [
            0.25,
            0.0
          ],
          [
            0.25,
            0.5
          ]
        ]
      }
    },
    {
      "type": "Feature",
      "properties": {
        "id": 119,
        "startid": 22,
        "endid": 116,
        "metadata": {
          "class": "right_turn",
          "from_arm": "south",
          "to_arm": "east",
          "speed_limit": 40.0
        }
      },
      "geometry": {
        "type": "LineString",
        "coordinates": [
          [
            0.25,
            -0.5
          ],
          [
            0.25,
            -0.4
          ]
        ]
      }
    },
    {
      "type": "Feature",
      "properties": {
        "id": 120,
        "startid": 116,
        "endid": 117,
        "metadata": {
          "class": "right_turn",
          "from_arm": "south",
          "to_arm": "east",
          "speed_limit": 40.0
        }
      },
      "geometry": {
        "type": "LineString",
        "coordinates": [
          [
            0.25,
            -0.4
          ],
          [
            0.111418,
            -0.307403
          ]
        ]
      }
    },
    {
      "type": "Feature",
      "properties": {
        "id": 121,
        "startid": 117,
        "endid": 118,
        "metadata": {
          "class": "right_turn",
          "from_arm": "south",
          "to_arm": "east",
          "speed_limit": 40.0
        }
      },
      "geometry": {
        "type": "LineString",
        "coordinates": [
          [
            0.111418,
            -0.307403
          ],
          [
            0.1,
            -0.25
          ]
        ]
      }
    },
    {
      "type": "Feature",
      "properties": {
        "id": 122,
        "startid": 118,
        "endid": 45,
        "metadata": {
          "class": "right_turn",
          "from_arm": "south",
          "to_arm": "east",
          "speed_limit": 40.0
        }
      },
      "geometry": {
        "type": "LineString",
        "coordinates": [
          [
            0.1,
            -0.25
          ],
          [
            0.5,
            -0.25
          ]
        ]
      }
    },
    {
      "type": "Feature",
      "properties": {
        "id": 126,
        "startid": 58,
        "endid": 123,
        "metadata": {
          "class": "left_turn",
          "from_arm": "west",
          "to_arm": "north",
          "speed_limit": 40.0
        }
      },
      "geometry": {
        "type": "LineString",
        "coordinates": [
          [
            -0.5,
            -0.25
          ],
          [
            0.1,
            -0.25
          ]
        ]
      }
    },
    {
      "type": "Feature",
      "properties": {
        "id": 127,
        "startid": 123,
        "endid": 124,
        "metadata": {
          "class": "left_turn",
          "from_arm": "west",
          "to_arm": "north",
          "speed_limit": 40.0
        }
      },
      "geometry": {
        "type": "LineString",
        "coordinates": [
          [
            0.1,
            -0.25
          ],
          [
            0.192597,
            -0.388582
          ]
        ]
      }
    },
    {
      "type": "Feature",
      "properties": {
        "id": 128,
        "startid": 124,
        "endid": 125,
        "metadata": {
          "class": "left_turn",
          "from_arm": "west",
          "to_arm": "north",
          "speed_limit": 40.0
        }
      },
      "geometry": {
        "type": "LineString",
        "coordinates": [
          [
            0.192597,
            -0.388582
          ],
          [
            0.25,
            -0.4
          ]
        ]
      }
    },
    {
      "type": "Feature",
      "properties": {
        "id": 129,
        "startid": 125,
        "endid": 9,
        "metadata": {
          "class": "left_turn",
          "from_arm": "west",
          "to_arm": "north",
          "speed_limit": 40.0
        }
      },
      "geometry": {
        "type": "LineString",
        "coordinates": [
          [
            0.25,
            -0.4
          ],
          [
            0.25,
            0.5
          ]
        ]
      }
    },
    {
      "type": "Feature",
      "properties": {
        "id": 131,
        "startid": 58,
        "endid": 130,
        "metadata": {
          "class": "straight_through",
          "from_arm": "west",
          "to_arm": "east",
          "speed_limit": 100.0
        }
      },
      "geometry": {
        "type": "LineString",
        "coordinates": [
          [
            -0.5,
            -0.25
          ],
          [
            0.0,
            -0.25
          ]
        ]
      }
    },
    {
      "type": "Feature",
      "properties": {
        "id": 132,
        "startid": 130,
        "endid": 45,
        "metadata": {
          "class": "straight_through",
          "from_arm": "west",
          "to_arm": "east",
          "speed_limit": 100.0
        }
      },
      "geometry": {
        "type": "LineString",
        "coordinates": [
          [
            0.0,
            -0.25
          ],
          [
            0.5,
            -0.25
          ]
        ]
      }
    },
    {
      "type": "Feature",
      "properties": {
        "id": 136,
        "startid": 58,
        "endid": 133,
        "metadata": {
          "class": "right_turn",
          "from_arm": "west",
          "to_arm": "south",
          "speed_limit": 40.0
        }
      },
      "geometry": {
        "type": "LineString",
        "coordinates": [
          [
            -0.5,
            -0.25
          ],
          [
            -0.4,
            -0.25
          ]
        ]
      }
    },
    {
      "type": "Feature",
      "properties": {
        "id": 137,
        "startid": 133,
        "endid": 134,
        "metadata": {
          "class": "right_turn",
          "from_arm": "west",
          "to_arm": "south",
          "speed_limit": 40.0
        }
      },
      "geometry": {
        "type": "LineString",
        "coordinates": [
          [
            -0.4,
            -0.25
          ],
          [
            -0.307403,
            -0.111418
          ]
        ]
      }
    },
    {
      "type": "Feature",
      "properties": {
        "id": 138,
        "startid": 134,
        "endid": 135,
        "metadata": {
          "class": "right_turn",
          "from_arm": "west",
          "to_arm": "south",
          "speed_limit": 40.0
        }
      },
      "geometry": {
        "type": "LineString",
        "coordinates": [
          [
            -0.307403,
            -0.111418
          ],
          [
            -0.25,
            -0.1
          ]
        ]
      }
    },
    {
      "type": "Feature",
      "properties": {
        "id": 139,
        "startid": 135,
        "endid": 27,
        "metadata": {
          "class": "right_turn",
          "from_arm": "west",
          "to_arm": "south",
          "speed_limit": 40.0
        }
      },
      "geometry": {
        "type": "LineString",
        "coordinates": [
          [
            -0.25,
            -0.1
          ],
          [
            -0.25,
            -0.5
          ]
        ]
      }
    }
  ]
}